satname,norad_id,inclination_deg,eccentricity,mean_motion_rev_per_day,perigee_km,apogee_km,l1,l2
STARLINK-1008,44714,53.1552,0.0003171,15.34844011,459.21505203066226,463.55267616267156,1 44714U 19074B   26106.13261448  .00026685  00000+0  78689-3 0  9992,2 44714  53.1552   4.1211 0003171 159.2750 200.8382 15.34844011354616
STARLINK-1012,44718,53.1598,0.0003663,15.34191079,460.8182406502701,465.8302951751439,1 44718U 19074F   26106.97897372  .00021514  00000+0  65025-3 0  9995,2 44718  53.1598   0.4435 0003663 148.4330 211.6893 15.34191079354736
STARLINK-1017,44723,53.051,0.0003348,15.27568564,480.78620318161757,485.38047632111557,1 44723U 19074L   26106.40140773  .00015152  00000+0  56619-3 0  9995,2 44723  53.0510 357.0009 0003348 153.7026 206.4143 15.27568564354722
STARLINK-1019,44724,53.0352,0.0005286,15.96009955,281.97933586560066,289.0241347365609,1 44724U 19074M   26107.00002315  .00244518  34746-4  58831-3 0  9999,2 44724  53.0352 302.1442 0005286 284.6105  56.1729 15.96009955  6021
STARLINK-1020,44725,53.1607,0.000293,15.33256085,464.09994731954976,468.11067331339564,1 44725U 19074N   26106.19572679  .00028244  00000+0  87484-3 0  9997,2 44725  53.1607  29.3252 0002930 146.0752 214.0438 15.33256085354246
STARLINK-1036,44741,53.0457,0.0004624,15.64013609,372.95394780744573,379.2002450038017,1 44741U 19074AE  26106.41356496  .00068756  00000+0  71398-3 0  9996,2 44741  53.0457   4.8109 0004624 120.0247 240.1226 15.64013609354611
STARLINK-1039,44744,53.066,0.0002053,15.25029705,489.2860653429407,492.10640826997314,1 44744U 19074AH  26106.53600462  .00020736  00000+0  83058-3 0  9999,2 44744  53.0660  40.7113 0002053  67.8247 292.2968 15.25029705354124
STARLINK-1042,44747,53.042,3.3e-05,15.5188584,410.99619394949605,411.4442915275167,1 44747U 19074AL  26106.80356037  .00015565  00000+0  26241-3 0  9993,2 44747  53.0420 271.6352 0000330 282.0474  78.0497 15.51885840355981
STARLINK-1043,44748,53.0525,0.0002403,15.56205142,397.02322894591543,400.28015359093934,1 44748U 19074AM  26106.45050271  .00021863  00000+0  31238-3 0  9996,2 44748  53.0525  11.9533 0002403 139.6458 220.4731 15.56205142354525
STARLINK-1046,44751,53.0521,0.0001578,15.48467527,420.1355114601092,422.28138488355125,1 44751U 19074AQ  26106.49672859  .00037546  00000+0  70011-3 0  9993,2 44751  53.0521  30.5742 0001578 320.7228  39.3665 15.48467527354266
STARLINK-1047,44752,53.0702,0.0002525,15.33484403,463.6979417401244,467.1539410255218,1 44752U 19074AR  26106.89508712  .00005572  00000+0  18099-3 0  9996,2 44752  53.0702 327.4040 0002525  23.1744 336.9371 15.33484403355208
STARLINK-1048,44753,53.0501,0.0002821,15.60340975,384.7630246803383,388.57972956671074,1 44753U 19074AS  26106.39443164  .00070770  00000+0  84723-3 0  9990,2 44753  53.0501 346.0223 0002821 163.5858 196.5246 15.60340975354878
STARLINK-1063,44768,53.1585,0.0003718,15.33843539,461.81362005264873,466.90169908150256,1 44768U 19074BH  26106.91940705  .00031849  00000+0  96648-3 0  9990,2 44768  53.1585  41.3647 0003718 123.1715 236.9644 15.33843539354170
STARLINK-1067,44771,53.0485,0.0006383,15.64990169,368.95761219755514,377.5764545865841,1 44771U 19074BL  26106.46566800  .00061168  00000+0  61202-3 0  9999,2 44771  53.0485  19.8508 0006383 118.1961 241.9699 15.64990169354415
STARLINK-1068,44772,53.0466,0.0003975,15.68833455,359.5569561348875,364.91555287221854,1 44772U 19074BM  26106.96620824  .00053846  00000+0  46264-3 0  9997,2 44772  53.0466 351.6126 0003975  77.9856 282.1606 15.68833455354847
STARLINK-1114,44927,53.045,0.0004604,15.57152909,392.7828328505839,399.0203675936673,1 44927U 20001P   26106.95083075  .00049761  00000+0  67543-3 0  9995,2 44927  53.0450 144.7169 0004604 315.7258  44.3384 15.57152909346049
STARLINK-1123,44930,53.147,0.0003939,15.31624993,468.2657355894835,473.6614570392585,1 44930U 20001S   26106.46223351  .00023823  00000+0  77871-3 0  9994,2 44930  53.1470 169.7022 0003939  27.8556 332.2655 15.31624993345658
STARLINK-1094,44941,53.1557,0.0003285,15.33263437,463.8351051205618,468.33175794407816,1 44941U 20001AD  26106.79758089  .00031399  00000+0  97062-3 0  9994,2 44941  53.1557 142.2284 0003285  45.8409 314.2863 15.33263437346075
STARLINK-1122,44949,53.1566,0.0001283,15.30822604,472.4776695442306,474.235762831805,1 44949U 20001AM  26106.52494558  .00029821  00000+0  99562-3 0  9995,2 44949  53.1566 143.8426 0001283  80.2286 279.8860 15.30822604346022
STARLINK-1080,44961,53.0475,0.0001675,15.53786994,404.5446923232712,406.81727134718676,1 44961U 20001AZ  26106.51596806  .00047974  00000+0  73754-3 0  9991,2 44961  53.0475 106.5308 0001675 343.1962  16.8992 15.53786994346544
STARLINK-1090,44968,53.1502,0.0003814,15.31919592,467.47356904066055,472.69739314924027,1 44968U 20001BG  26106.35869598  .00022999  00000+0  74542-3 0  9997,2 44968  53.1502 131.4097 0003814  44.2163 315.9142 15.31919592346182
STARLINK-1132,45044,53.1533,0.0004701,15.48517292,417.866468991032,424.2590766174226,1 45044U 20006A   26106.60935863  .00043030  00000+0  79906-3 0  9993,2 45044  53.1533  73.5837 0004701  33.1916 326.9387 15.48517292342794
STARLINK-1131,45047,53.1576,0.0002369,15.3211557,467.8792771397557,471.1236882528565,1 45047U 20006D   26106.27379006  .00026032  00000+0  83680-3 0  9997,2 45047  53.1576 106.2562 0002369  71.8649 288.2611 15.32115570342306
STARLINK-1134,45048,53.0305,0.0004031,15.486541,417.92174365797746,423.4029356856199,1 45048U 20006E   26106.56890056  .00043888  00000+0  81085-3 0  9998,2 45048  53.0305  57.5079 0004031 332.2077  27.8714 15.48654100343007
STARLINK-1156,45054,53.158,0.0001418,15.30751817,472.59636653984853,474.53951006034913,1 45054U 20006L   26106.70373204  .00025595  00000+0  85857-3 0  9998,2 45054  53.1580 104.4020 0001418  91.9633 268.1531 15.30751817342360
STARLINK-1159,45057,53.0386,0.0002537,15.98463527,276.9922244610234,280.3698939442629,1 45057U 20006P   26107.00002315  .00202954  27964-4  42802-3 0  9999,2 45057  53.0386  39.8518 0002537 139.9631 276.3784 15.98463527  6037
STARLINK-1166,45060,53.048,0.0003165,15.51480037,410.2548615609103,414.5532740568342,1 45060U 20006S   26106.98033968  .00052303  00000+0  87236-3 0  9995,2 45060  53.0480  89.3782 0003165  35.3530 324.7688 15.51480037342593
STARLINK-1169,45061,53.1558,0.0003827,15.33282548,463.4072986158408,468.64582140467337,1 45061U 20006T   26106.38140046  .00027898  00000+0  86351-3 0  9994,2 45061  53.1558 105.5862 0003827  67.3303 292.8103 15.33282548342324
STARLINK-1171,45062,53.0436,0.0004873,15.67994218,361.3553826429943,367.9268942167082,1 45062U 20006U   26106.17601426  .00037745  00000+0  33773-3 0  9998,2 45062  53.0436  65.2323 0004873  84.6283 275.5289 15.67994218342867
STARLINK-1133,45064,53.1575,0.000151,15.30806343,472.37065324783634,474.439819003147,1 45064U 20006W   26106.21941161  .00027431  00000+0  91753-3 0  9991,2 45064  53.1575  83.4541 0001510 100.2820 259.8351 15.30806343342625
STARLINK-1167,45071,53.1565,0.0003779,15.32945957,464.4415901365455,469.61516612933883,1 45071U 20006AD  26106.62349496  .00028050  00000+0  87737-3 0  9992,2 45071  53.1565  81.4575 0003779  77.0365 283.1059 15.32945957342689
STARLINK-1168,45072,53.1597,0.0001565,15.30794763,472.36751754605484,474.51206108111,1 45072U 20006AE  26106.65783901  .00026785  00000+0  89661-3 0  9990,2 45072  53.1597  81.6285 0001565 104.3203 255.7972 15.30794763342685
STARLINK-1172,45074,53.1557,0.0003683,15.33758582,462.0901501926637,467.13051787891436,1 45074U 20006AG  26106.35326221  .00022025  00000+0  67451-3 0  9993,2 45074  53.1557  82.4254 0003683  77.4500 282.6914 15.33758582342644
STARLINK-1153,45080,53.159,0.0004252,15.32849093,464.40606188468337,470.2274357526785,1 45080U 20006AN  26106.34652348  .00037816  00000+0  11808-2 0  9999,2 45080  53.1590  82.6657 0004252  90.3716 269.7774 15.32849093342640
STARLINK-1151,45081,53.0516,0.0005193,15.7045475,354.0985369036616,361.0942696162874,1 45081U 20006AP  26106.56209677  .00039131  00000+0  31621-3 0  9995,2 45081  53.0516  53.1251 0005193  98.5076 261.6530 15.70454750343067
STARLINK-1185,45087,53.161,0.0002137,15.40481003,443.2306615934549,446.1467372973975,1 45087U 20006AV  26106.30757973  .00036658  00000+0  89630-3 0  9994,2 45087  53.1610  65.9670 0002137 115.2595 244.8632 15.40481003342875
STARLINK-1183,45088,53.1588,0.0001563,15.30847931,472.2102699704019,474.35202328303694,1 45088U 20006AW  26107.00002315 -.00000787  00000+0 -14079-4 0  9998,2 45088  53.1588  64.6073 0001563 116.5913 105.6429 15.30847931  5850
STARLINK-1152,45096,53.0355,0.0002795,15.42997664,435.36299603283715,439.1728073728891,1 45096U 20006BE  26106.47598270  .00034689  00000+0  78070-3 0  9993,2 45096  53.0355  27.5859 0002795  49.2608 310.8639 15.42997664343413
STARLINK-1184,45098,53.0523,0.0001648,15.1213581,528.5493086874912,530.8261277146103,1 45098U 20006BG  26106.62752007  .00014941  00000+0  87225-3 0  9993,2 45098  53.0523  73.8263 0001648 251.7233 108.3580 15.12135810342772
STARLINK-1193,45100,53.0492,0.0006179,15.61732806,378.4740479835755,386.8290304603461,1 45100U 20006BJ  26106.85993897  .00071783  00000+0  81391-3 0  9991,2 45100  53.0492  44.8041 0006179  96.6849 263.4867 15.61732806343208
STARLINK-1143,45179,53.045,0.0004507,15.72436345,348.9030252332923,354.9695132781999,1 45179U 20012B   26106.81464130  .00053287  00000+0  39403-3 0  9999,2 45179  53.0450 142.0158 0004507 317.5645  42.5024 15.72436345341907
STARLINK-1202,45183,53.1581,0.0001495,15.30596537,473.00693787116234,475.05573620393716,1 45183U 20012F   26106.63557738  .00024335  00000+0  82096-3 0  9999,2 45183  53.1581 222.9838 0001495  22.3909 337.7157 15.30596537340761
STARLINK-1216,45185,53.1575,0.0001453,15.30877264,472.1981284072426,474.18912508737594,1 45185U 20012H   26106.62470921  .00028997  00000+0  96692-3 0  9993,2 45185  53.1575 222.9977 0001453  31.5071 328.6017 15.30877264340703
